FLOCK 4G-15             
1 62678U 25009BX  26068.71779869  .00012647  00000+0  47575-3 0  9991
2 62678  97.4054 151.1927 0003699 316.8208  43.2740 15.27266411121358
STARLINK-34038          
1 63911U 25095X   26068.33763224  .00022448  00000+0  82242-3 0  9993
2 63911  42.9999 178.2312 0000730 258.9451 101.1318 15.27594626 47724
